CSS (TIANHE)            
1 48274U 21035A   23362.13911444  .00039215  00000+0  40013-3 0  9999
2 48274  41.4715  54.2444 0006049  78.5867 281.5652 15.64295168152163
